[{"OBJECT_NAME":"STARLINK-4032","OBJECT_ID":"2022-053AJ","EPOCH":"2026-03-09T12:32:54.779136","MEAN_MOTION":15.08838305,"ECCENTRICITY":0.00013111,"INCLINATION":53.2175,"RA_OF_ASC_NODE":144.7569,"ARG_OF_PERICENTER":92.8104,"MEAN_ANOMALY":267.3038,"EPHEMERIS_TYPE":0,"CLASSIFICATION_TYPE":"U","NORAD_CAT_ID":52688,"ELEMENT_SET_NO":999,"REV_AT_EPOCH":21109,"BSTAR":8.993393e-6,"MEAN_MOTION_DOT":-1.45e-6,"MEAN_MOTION_DDOT":0},{"OBJECT_NAME":"CZ-6A DEB","OBJECT_ID":"2022-151BX","EPOCH":"2026-03-09T18:04:18.424992","MEAN_MOTION":15.16566225,"ECCENTRICITY":0.00404449,"INCLINATION":98.6231,"RA_OF_ASC_NODE":169.9483,"ARG_OF_PERICENTER":104.1368,"MEAN_ANOMALY":256.4361,"EPHEMERIS_TYPE":0,"CLASSIFICATION_TYPE":"U","NORAD_CAT_ID":54328,"ELEMENT_SET_NO":999,"REV_AT_EPOCH":10563,"BSTAR":0.0050960293,"MEAN_MOTION_DOT":0.00102794,"MEAN_MOTION_DDOT":0}]
